LEMUR-2-AMANDA-SVANTE   
1 48269U 21034B   26068.77637527  .00030872  00000+0  11134-2 0  9996
2 48269  97.5829 144.8625 0002703 205.4721 154.6385 15.28469003265849
STARLINK-34095          
1 63809U 25092F   26068.32148483  .00028491  00000+0  10401-2 0  9990
2 63809  42.9993 175.0353 0000772 247.0553 113.0217 15.27604081 48551
